{
    "links": {
        "self": "http://www.neowsapp.com/rest/v1/neo/3781021?api_key=iIulBulltgU6a56xZRHN4H3l9WmuAYTsLGpBGhQ2"
    },
    "id": "3781021",
    "neo_reference_id": "3781021",
    "name": "(2017 QN17)",
    "designation": "2017 QN17",
    "nasa_jpl_url": "http://ssd.jpl.nasa.gov/sbdb.cgi?sstr=3781021",
    "absolute_magnitude_h": 22.7,
    "estimated_diameter": {
        "kilometers": {
            "estimated_diameter_min": 0.0766575574,
            "estimated_diameter_max": 0.1714115092
        },
        "meters": {
            "estimated_diameter_min": 76.6575573531,
            "estimated_diameter_max": 171.4115092306
        },
        "miles": {
            "estimated_diameter_min": 0.0476327831,
            "estimated_diameter_max": 0.1065101409
        },
        "feet": {
            "estimated_diameter_min": 251.5011804664,
            "estimated_diameter_max": 562.3737359442
        }
    },
    "is_potentially_hazardous_asteroid": false,
    "close_approach_data": [
        {
            "close_approach_date": "1907-04-08",
            "close_approach_date_full": "1907-Apr-08 10:58",
            "epoch_date_close_approach": -1979730120000,
            "relative_velocity": {
                "kilometers_per_second": "4.0372050305",
                "kilometers_per_hour": "14533.9381098667",
                "miles_per_hour": "9030.8239327669"
            },
            "miss_distance": {
                "astronomical": "0.0940654573",
                "lunar": "36.5914628897",
                "kilometers": "14071992.052655951",
                "miles": "8743930.4000800838"
            },
            "orbiting_body": "Mars"
        },
        {
            "close_approach_date": "1920-10-23",
            "close_approach_date_full": "1920-Oct-23 15:35",
            "epoch_date_close_approach": -1552292700000,
            "relative_velocity": {
                "kilometers_per_second": "2.0448666692",
                "kilometers_per_hour": "7361.5200091158",
                "miles_per_hour": "4574.1622523309"
            },
            "miss_distance": {
                "astronomical": "0.0322266448",
                "lunar": "12.5361648272",
                "kilometers": "4821037.419326576",
                "miles": "2995653.7420597088"
            },
            "orbiting_body": "Mars"
        },
        {
            "close_approach_date": "2017-08-29",
            "close_approach_date_full": "2017-Aug-29 17:10",
            "epoch_date_close_approach": 1504026600000,
            "relative_velocity": {
                "kilometers_per_second": "3.9589022213",
                "kilometers_per_hour": "14252.0479966824",
                "miles_per_hour": "8855.6683788275"
            },
            "miss_distance": {
                "astronomical": "0.3691163872",
                "lunar": "143.5862746208",
                "kilometers": "55219025.307215264",
                "miles": "34311511.2799840832"
            },
            "orbiting_body": "Earth"
        }
    ],
    "orbital_data": {
        "orbit_id": "1",
        "orbit_determination_date": "2017-08-26 09:12:03",
        "first_observation_date": "2017-08-18",
        "last_observation_date": "2017-08-26",
        "data_arc_in_days": 8,
        "observations_used": 12,
        "orbit_uncertainty": "8",
        "minimum_orbit_intersection": ".26988",
        "jupiter_tisserand_invariant": "4.770",
        "epoch_osculation": "2457984.5",
        "eccentricity": ".09480935985875287",
        "semi_major_axis": "1.390754898666316",
        "inclination": "2.540250298633598",
        "ascending_node_longitude": "66.71790535492445",
        "orbital_period": "599.0655206191329",
        "perihelion_distance": "1.258898317003338",
        "perihelion_argument": "353.3623083546215",
        "aphelion_distance": "1.522611480329294",
        "perihelion_time": "2458121.377184699009",
        "mean_anomaly": "277.745580749303",
        "mean_motion": ".600935937070691",
        "equinox": "J2000",
        "orbit_class": {
            "orbit_class_type": "AMO",
            "orbit_class_description": "Near-Earth asteroid orbits similar to that of 1221 Amor",
            "orbit_class_range": "1.017 AU < q (perihelion) < 1.3 AU"
        }
    },
    "is_sentry_object": false
}